[{"OBJECT_NAME":"FLOCK 4H-28","OBJECT_ID":"2025-276BT","EPOCH":"2026-03-09T15:22:11.244288","MEAN_MOTION":15.18390524,"ECCENTRICITY":0.0004562,"INCLINATION":97.4246,"RA_OF_ASC_NODE":143.8079,"ARG_OF_PERICENTER":17.8651,"MEAN_ANOMALY":342.2742,"EPHEMERIS_TYPE":0,"CLASSIFICATION_TYPE":"U","NORAD_CAT_ID":66731,"ELEMENT_SET_NO":999,"REV_AT_EPOCH":1530,"BSTAR":0.00038299,"MEAN_MOTION_DOT":7.812e-5,"MEAN_MOTION_DDOT":0},{"OBJECT_NAME":"AC1-002","OBJECT_ID":"2025-276CH","EPOCH":"2026-03-09T16:54:04.093056","MEAN_MOTION":15.17945166,"ECCENTRICITY":0.00020889,"INCLINATION":97.4267,"RA_OF_ASC_NODE":143.9072,"ARG_OF_PERICENTER":20.2082,"MEAN_ANOMALY":339.9235,"EPHEMERIS_TYPE":0,"CLASSIFICATION_TYPE":"U","NORAD_CAT_ID":66745,"ELEMENT_SET_NO":999,"REV_AT_EPOCH":1531,"BSTAR":0.00016926708,"MEAN_MOTION_DOT":3.369e-5,"MEAN_MOTION_DDOT":0}]
