FLOCK 4H-28             
1 66731U 25276BT  26068.64040792  .00007812  00000+0  38299-3 0  9990
2 66731  97.4246 143.8079 0004562  17.8651 342.2742 15.18390524 15305
AC1-002                 
1 66745U 25276CH  26068.70421404  .00003369  00000+0  16927-3 0  9992
2 66745  97.4267 143.9072 0002089  20.2082 339.9235 15.17945166 15313
